{
  "norad_id": 67082,
  "name": "STARLINK-36035",
  "history": [
    {
      "epoch": "2026-03-28T21:05:59.993376Z",
      "apogee_km": 573.8535751252684,
      "perigee_km": 570.2083510319926,
      "latitude_deg": 4.416067988580979e-05,
      "longitude_deg": -176.79523846662732,
      "height_km": 574.4400781639682,
      "semi_major_axis_km": 6950.16796307863,
      "eccentricity": 0.00026224,
      "inclination_deg": 70.001,
      "raan_deg": 325.998,
      "arg_perigee_deg": 270.5668,
      "mean_anomaly_deg": 89.5191,
      "mean_motion_rev_day": 14.98338061
    },
    {
      "epoch": "2026-03-29T01:54:24.348672Z",
      "apogee_km": 573.8741873809731,
      "perigee_km": 570.1961562676452,
      "latitude_deg": -7.765772826471648e-05,
      "longitude_deg": 110.40073019275448,
      "height_km": 574.4442108411906,
      "semi_major_axis_km": 6950.172171824309,
      "eccentricity": 0.0002646,
      "inclination_deg": 70.0001,
      "raan_deg": 325.4929,
      "arg_perigee_deg": 270.5632,
      "mean_anomaly_deg": 89.5223,
      "mean_motion_rev_day": 14.983367
    },
    {
      "epoch": "2026-03-30T01:56:24.951840Z",
      "apogee_km": 573.971313735381,
      "perigee_km": 570.0500404159757,
      "latitude_deg": 2.0030068271030284e-05,
      "longitude_deg": 106.38593210596926,
      "height_km": 574.4591221006701,
      "semi_major_axis_km": 6950.147677075678,
      "eccentricity": 0.0002821,
      "inclination_deg": 70.0005,
      "raan_deg": 322.9676,
      "arg_perigee_deg": 269.3829,
      "mean_anomaly_deg": 90.7007,
      "mean_motion_rev_day": 14.98344621
    },
    {
      "epoch": "2026-03-30T01:56:24.952704Z",
      "apogee_km": 573.971383236857,
      "perigee_km": 570.0499709144988,
      "latitude_deg": 2.1113581684019897e-05,
      "longitude_deg": 106.38592888831444,
      "height_km": 574.4591228492498,
      "semi_major_axis_km": 6950.147677075678,
      "eccentricity": 0.00028211,
      "inclination_deg": 70.0005,
      "raan_deg": 322.9676,
      "arg_perigee_deg": 269.3829,
      "mean_anomaly_deg": 90.7007,
      "mean_motion_rev_day": 14.98344621
    },
    {
      "epoch": "2026-03-30T08:20:57.192288Z",
      "apogee_km": 573.6419523112845,
      "perigee_km": 570.4184647599659,
      "latitude_deg": 7.079220750714423e-06,
      "longitude_deg": 9.314286069498435,
      "height_km": 574.343379047667,
      "semi_major_axis_km": 6950.167208535625,
      "eccentricity": 0.0002319,
      "inclination_deg": 70.0012,
      "raan_deg": 322.2935,
      "arg_perigee_deg": 274.0435,
      "mean_anomaly_deg": 86.0459,
      "mean_motion_rev_day": 14.98338305
    }
  ]
}